{
  "type": "FeatureCollection",
  "generator": "overpass-turbo",
  "copyright": "The data included in this document is from www.openstreetmap.org. The data is made available under ODbL.",
  "timestamp": "2026-08-02T05:24:06Z",
  "features": [
    {
      "type": "Feature",
      "properties": {
        "@id": "way/168581147",
        "amenity": "parking",
        "source": "Bing"
      },
      "geometry": {
        "type": "Polygon",
        "coordinates": [
          [
            [
              139.1365138,
              35.9775276
            ],
            [
              139.1364552,
              35.9775564
            ],
            [
              139.1363892,
              35.9775774
            ],
            [
              139.136324,
              35.9775897
            ],
            [
              139.1361308,
              35.9776047
            ],
            [
              139.1359904,
              35.9775868
            ],
            [
              139.1358734,
              35.9775398
            ],
            [
              139.1358045,
              35.9774752
            ],
            [
              139.1357143,
              35.9773995
            ],
            [
              139.1358283,
              35.9773197
            ],
            [
              139.1355932,
              35.9772641
            ],
            [
              139.1356264,
              35.9771592
            ],
            [
              139.1356739,
              35.9770089
            ],
            [
              139.135702,
              35.9769955
            ],
            [
              139.1357253,
              35.9769248
            ],
            [
              139.1358231,
              35.9769451
            ],
            [
              139.1358005,
              35.9770152
            ],
            [
              139.1360328,
              35.9770616
            ],
            [
              139.1359973,
              35.9771761
            ],
            [
              139.1362274,
              35.9772234
            ],
            [
              139.1365715,
              35.977294
            ],
            [
              139.1366024,
              35.977306
            ],
            [
              139.1366298,
              35.9773252
            ],
            [
              139.1366482,
              35.9773487
            ],
            [
              139.1366503,
              35.9773894
            ],
            [
              139.1366334,
              35.9774308
            ],
            [
              139.1365617,
              35.977495
            ],
            [
              139.1365138,
              35.9775276
            ]
          ]
        ]
      },
      "id": "way/168581147"
    },
    {
      "type": "Feature",
      "properties": {
        "@id": "way/229187072",
        "amenity": "parking"
      },
      "geometry": {
        "type": "Polygon",
        "coordinates": [
          [
            [
              139.1140931,
              35.9815668
            ],
            [
              139.11392,
              35.9815461
            ],
            [
              139.1139139,
              35.9812843
            ],
            [
              139.1140746,
              35.9812652
            ],
            [
              139.1140931,
              35.9815668
            ]
          ]
        ]
      },
      "id": "way/229187072"
    },
    {
      "type": "Feature",
      "properties": {
        "@id": "way/229187090",
        "amenity": "parking"
      },
      "geometry": {
        "type": "Polygon",
        "coordinates": [
          [
            [
              139.1132191,
              35.9815661
            ],
            [
              139.1129154,
              35.9815771
            ],
            [
              139.1128897,
              35.98156
            ],
            [
              139.1128338,
              35.981148
            ],
            [
              139.112935,
              35.9811308
            ],
            [
              139.112994,
              35.9814059
            ],
            [
              139.1131979,
              35.9813741
            ],
            [
              139.1132191,
              35.9815661
            ]
          ]
        ]
      },
      "id": "way/229187090"
    },
    {
      "type": "Feature",
      "properties": {
        "@id": "way/577939908",
        "amenity": "parking"
      },
      "geometry": {
        "type": "Polygon",
        "coordinates": [
          [
            [
              139.1080195,
              35.9829115
            ],
            [
              139.1080515,
              35.9830835
            ],
            [
              139.1080576,
              35.9831331
            ],
            [
              139.1080055,
              35.9831402
            ],
            [
              139.1079011,
              35.98314
            ],
            [
              139.1078998,
              35.9830533
            ],
            [
              139.1077214,
              35.9830568
            ],
            [
              139.107718,
              35.9830455
            ],
            [
              139.1077536,
              35.9829883
            ],
            [
              139.10788,
              35.9827849
            ],
            [
              139.1079133,
              35.9827313
            ],
            [
              139.1079318,
              35.9827039
            ],
            [
              139.1080042,
              35.9827171
            ],
            [
              139.1080195,
              35.9829115
            ]
          ]
        ]
      },
      "id": "way/577939908"
    },
    {
      "type": "Feature",
      "properties": {
        "@id": "way/632074264",
        "amenity": "parking"
      },
      "geometry": {
        "type": "Polygon",
        "coordinates": [
          [
            [
              139.098326,
              35.9862408
            ],
            [
              139.0980792,
              35.9860195
            ],
            [
              139.0978071,
              35.9861926
            ],
            [
              139.0976447,
              35.9860368
            ],
            [
              139.0978968,
              35.9858632
            ],
            [
              139.0979385,
              35.9858428
            ],
            [
              139.0980867,
              35.9859925
            ],
            [
              139.0982307,
              35.9858957
            ],
            [
              139.0983337,
              35.9860075
            ],
            [
              139.0984849,
              35.9859131
            ],
            [
              139.0986425,
              35.9860455
            ],
            [
              139.098326,
              35.9862408
            ]
          ]
        ]
      },
      "id": "way/632074264"
    },
    {
      "type": "Feature",
      "properties": {
        "@id": "way/632074265",
        "amenity": "parking"
      },
      "geometry": {
        "type": "Polygon",
        "coordinates": [
          [
            [
              139.0981007,
              35.9867834
            ],
            [
              139.0984294,
              35.9865929
            ],
            [
              139.0984704,
              35.9865786
            ],
            [
              139.0989257,
              35.9862783
            ],
            [
              139.0990869,
              35.9864194
            ],
            [
              139.0992017,
              35.986552
            ],
            [
              139.0991279,
              35.9865836
            ],
            [
              139.0990534,
              35.9866119
            ],
            [
              139.0989709,
              35.9864869
            ],
            [
              139.0985352,
              35.986701
            ],
            [
              139.098562,
              35.9867487
            ],
            [
              139.0981436,
              35.9868268
            ],
            [
              139.0981007,
              35.9867834
            ]
          ]
        ]
      },
      "id": "way/632074265"
    },
    {
      "type": "Feature",
      "properties": {
        "@id": "way/632074266",
        "amenity": "parking"
      },
      "geometry": {
        "type": "Polygon",
        "coordinates": [
          [
            [
              139.099143,
              35.9868109
            ],
            [
              139.0990803,
              35.986714
            ],
            [
              139.0990408,
              35.9867307
            ],
            [
              139.0989914,
              35.9866543
            ],
            [
              139.0992008,
              35.9865654
            ],
            [
              139.099313,
              35.9867388
            ],
            [
              139.099143,
              35.9868109
            ]
          ]
        ]
      },
      "id": "way/632074266"
    },
    {
      "type": "Feature",
      "properties": {
        "@id": "way/632074267",
        "amenity": "parking"
      },
      "geometry": {
        "type": "Polygon",
        "coordinates": [
          [
            [
              139.0989044,
              35.9861237
            ],
            [
              139.0987135,
              35.9859572
            ],
            [
              139.0988677,
              35.9858472
            ],
            [
              139.0990479,
              35.9860276
            ],
            [
              139.0989044,
              35.9861237
            ]
          ]
        ]
      },
      "id": "way/632074267"
    },
    {
      "type": "Feature",
      "properties": {
        "@id": "way/662831978",
        "amenity": "parking",
        "fee": "no",
        "name": "県民の森駐車場",
        "parking": "surface",
        "surface": "asphalt"
      },
      "geometry": {
        "type": "Polygon",
        "coordinates": [
          [
            [
              139.1572499,
              35.9893767
            ],
            [
              139.1575411,
              35.9898792
            ],
            [
              139.1576144,
              35.9900291
            ],
            [
              139.1572159,
              35.9899903
            ],
            [
              139.1567912,
              35.9892354
            ],
            [
              139.1569667,
              35.9888727
            ],
            [
              139.1572499,
              35.9893767
            ]
          ]
        ]
      },
      "id": "way/662831978"
    },
    {
      "type": "Feature",
      "properties": {
        "@id": "way/673190653",
        "amenity": "parking"
      },
      "geometry": {
        "type": "Polygon",
        "coordinates": [
          [
            [
              139.1043891,
              35.977875
            ],
            [
              139.1043432,
              35.9778956
            ],
            [
              139.1038358,
              35.9773777
            ],
            [
              139.1037848,
              35.9773426
            ],
            [
              139.103716,
              35.9773343
            ],
            [
              139.102821,
              35.9773343
            ],
            [
              139.102691,
              35.977355
            ],
            [
              139.1026094,
              35.9773859
            ],
            [
              139.1022958,
              35.9775221
            ],
            [
              139.1022116,
              35.9773901
            ],
            [
              139.1025839,
              35.9772291
            ],
            [
              139.1026833,
              35.9771982
            ],
            [
              139.1036803,
              35.977192
            ],
            [
              139.1038001,
              35.9772023
            ],
            [
              139.1039098,
              35.9772394
            ],
            [
              139.1040092,
              35.9773343
            ],
            [
              139.1043917,
              35.9777429
            ],
            [
              139.1043891,
              35.977875
            ]
          ]
        ]
      },
      "id": "way/673190653"
    },
    {
      "type": "Feature",
      "properties": {
        "@id": "way/683149412",
        "amenity": "parking",
        "fee": "no",
        "name": "県民の森駐車場",
        "parking": "surface",
        "surface": "asphalt"
      },
      "geometry": {
        "type": "Polygon",
        "coordinates": [
          [
            [
              139.1567629,
              35.9892781
            ],
            [
              139.157171,
              35.9899846
            ],
            [
              139.1568101,
              35.9899387
            ],
            [
              139.1565872,
              35.9895428
            ],
            [
              139.1567629,
              35.9892781
            ]
          ]
        ]
      },
      "id": "way/683149412"
    },
    {
      "type": "Feature",
      "properties": {
        "@id": "way/683149413",
        "amenity": "parking",
        "fee": "no",
        "name": "県民の森駐車場",
        "parking": "surface",
        "surface": "asphalt"
      },
      "geometry": {
        "type": "Polygon",
        "coordinates": [
          [
            [
              139.1567602,
              35.9899323
            ],
            [
              139.1564298,
              35.9898957
            ],
            [
              139.1564077,
              35.9898903
            ],
            [
              139.1563929,
              35.9898741
            ],
            [
              139.1563882,
              35.9898547
            ],
            [
              139.1563956,
              35.9898354
            ],
            [
              139.1565626,
              35.9895798
            ],
            [
              139.1567602,
              35.9899323
            ]
          ]
        ]
      },
      "id": "way/683149413"
    },
    {
      "type": "Feature",
      "properties": {
        "@id": "way/693435710",
        "amenity": "parking"
      },
      "geometry": {
        "type": "Polygon",
        "coordinates": [
          [
            [
              139.1001125,
              35.9886308
            ],
            [
              139.0999059,
              35.9882644
            ],
            [
              139.1000701,
              35.9882022
            ],
            [
              139.1001514,
              35.9883429
            ],
            [
              139.10038,
              35.9882563
            ],
            [
              139.1005099,
              35.9884909
            ],
            [
              139.1001125,
              35.9886308
            ]
          ]
        ]
      },
      "id": "way/693435710"
    },
    {
      "type": "Feature",
      "properties": {
        "@id": "way/698487775",
        "amenity": "parking",
        "operator": "横瀬町",
        "operator:type": "government"
      },
      "geometry": {
        "type": "Polygon",
        "coordinates": [
          [
            [
              139.1026831,
              35.9869572
            ],
            [
              139.1028293,
              35.9873029
            ],
            [
              139.1029833,
              35.9874383
            ],
            [
              139.103,
              35.9874738
            ],
            [
              139.1029606,
              35.9876112
            ],
            [
              139.103073,
              35.9876914
            ],
            [
              139.10305,
              35.9878346
            ],
            [
              139.102151,
              35.987468
            ],
            [
              139.1022065,
              35.9873447
            ],
            [
              139.1023354,
              35.9873689
            ],
            [
              139.1023445,
              35.9873373
            ],
            [
              139.1023061,
              35.9873287
            ],
            [
              139.102311,
              35.9873139
            ],
            [
              139.1022325,
              35.9872956
            ],
            [
              139.1023145,
              35.9871863
            ],
            [
              139.1024213,
              35.9870669
            ],
            [
              139.1024489,
              35.9870454
            ],
            [
              139.1026831,
              35.9869572
            ]
          ]
        ]
      },
      "id": "way/698487775"
    },
    {
      "type": "Feature",
      "properties": {
        "@id": "way/698549991",
        "amenity": "parking"
      },
      "geometry": {
        "type": "Polygon",
        "coordinates": [
          [
            [
              139.0981752,
              35.985395
            ],
            [
              139.0980908,
              35.9852859
            ],
            [
              139.0980792,
              35.9852606
            ],
            [
              139.0980815,
              35.9852088
            ],
            [
              139.0984061,
              35.9847732
            ],
            [
              139.0984467,
              35.9848996
            ],
            [
              139.0984796,
              35.9850188
            ],
            [
              139.0985399,
              35.9851655
            ],
            [
              139.098528,
              35.9851882
            ],
            [
              139.0984449,
              35.9852642
            ],
            [
              139.0984319,
              35.9852395
            ],
            [
              139.0983886,
              35.9852626
            ],
            [
              139.0984026,
              35.9852804
            ],
            [
              139.098198,
              35.9853949
            ],
            [
              139.0981752,
              35.985395
            ]
          ]
        ]
      },
      "id": "way/698549991"
    },
    {
      "type": "Feature",
      "properties": {
        "@id": "way/698549992",
        "access": "customers",
        "amenity": "parking",
        "charge": "600 JPY",
        "fee": "yes",
        "parking": "surface",
        "surface": "gravel"
      },
      "geometry": {
        "type": "Polygon",
        "coordinates": [
          [
            [
              139.0990699,
              35.9857535
            ],
            [
              139.0989786,
              35.9856803
            ],
            [
              139.0988497,
              35.9857854
            ],
            [
              139.0985709,
              35.9855396
            ],
            [
              139.0986058,
              35.9854443
            ],
            [
              139.0985992,
              35.9854204
            ],
            [
              139.0985331,
              35.9853804
            ],
            [
              139.0984423,
              35.985331
            ],
            [
              139.0984413,
              35.9853124
            ],
            [
              139.0985448,
              35.9851976
            ],
            [
              139.0985662,
              35.9852012
            ],
            [
              139.0986395,
              35.9852534
            ],
            [
              139.0987083,
              35.9852802
            ],
            [
              139.0987708,
              35.9852873
            ],
            [
              139.0988411,
              35.9852785
            ],
            [
              139.098951,
              35.9852916
            ],
            [
              139.0992112,
              35.98539
            ],
            [
              139.0993701,
              35.9855073
            ],
            [
              139.0990699,
              35.9857535
            ]
          ]
        ]
      },
      "id": "way/698549992"
    },
    {
      "type": "Feature",
      "properties": {
        "@id": "way/698566224",
        "amenity": "parking"
      },
      "geometry": {
        "type": "Polygon",
        "coordinates": [
          [
            [
              139.1044046,
              35.9856992
            ],
            [
              139.1042956,
              35.9857216
            ],
            [
              139.1042254,
              35.9857216
            ],
            [
              139.1040499,
              35.9856783
            ],
            [
              139.1040573,
              35.9855019
            ],
            [
              139.1041164,
              35.9853568
            ],
            [
              139.1042309,
              35.9852746
            ],
            [
              139.1043566,
              35.9852896
            ],
            [
              139.1044637,
              35.9852477
            ],
            [
              139.1045191,
              35.9852926
            ],
            [
              139.1045284,
              35.9853225
            ],
            [
              139.1044951,
              35.9853882
            ],
            [
              139.1044286,
              35.9854705
            ],
            [
              139.1043972,
              35.9855288
            ],
            [
              139.104364,
              35.9855751
            ],
            [
              139.1044157,
              35.985605
            ],
            [
              139.1044627,
              35.9856609
            ],
            [
              139.1044046,
              35.9856992
            ]
          ]
        ]
      },
      "id": "way/698566224"
    },
    {
      "type": "Feature",
      "properties": {
        "@id": "way/698820244",
        "amenity": "parking"
      },
      "geometry": {
        "type": "Polygon",
        "coordinates": [
          [
            [
              139.1032119,
              35.9919611
            ],
            [
              139.1031632,
              35.9922757
            ],
            [
              139.10312,
              35.9922706
            ],
            [
              139.1031295,
              35.9922083
            ],
            [
              139.1030643,
              35.9921975
            ],
            [
              139.1030855,
              35.9919586
            ],
            [
              139.1032119,
              35.9919611
            ]
          ]
        ]
      },
      "id": "way/698820244"
    },
    {
      "type": "Feature",
      "properties": {
        "@id": "way/699131644",
        "amenity": "parking"
      },
      "geometry": {
        "type": "Polygon",
        "coordinates": [
          [
            [
              139.105437,
              35.9873359
            ],
            [
              139.1053538,
              35.9873294
            ],
            [
              139.1052922,
              35.9872665
            ],
            [
              139.1052439,
              35.9872122
            ],
            [
              139.1049032,
              35.9869127
            ],
            [
              139.1049006,
              35.9868888
            ],
            [
              139.1051232,
              35.9867803
            ],
            [
              139.1053083,
              35.9869756
            ],
            [
              139.105437,
              35.9873359
            ]
          ]
        ]
      },
      "id": "way/699131644"
    },
    {
      "type": "Feature",
      "properties": {
        "@id": "way/699132862",
        "amenity": "parking"
      },
      "geometry": {
        "type": "Polygon",
        "coordinates": [
          [
            [
              139.1071902,
              35.9837745
            ],
            [
              139.1073263,
              35.9838867
            ],
            [
              139.10741,
              35.9839481
            ],
            [
              139.1074649,
              35.9840159
            ],
            [
              139.1074598,
              35.9842761
            ],
            [
              139.1072242,
              35.9842678
            ],
            [
              139.1072111,
              35.9840328
            ],
            [
              139.1071457,
              35.9839523
            ],
            [
              139.1070998,
              35.9839567
            ],
            [
              139.1070568,
              35.9839608
            ],
            [
              139.1070358,
              35.9838592
            ],
            [
              139.1071902,
              35.9837745
            ]
          ]
        ]
      },
      "id": "way/699132862"
    },
    {
      "type": "Feature",
      "properties": {
        "@id": "way/699133068",
        "amenity": "parking"
      },
      "geometry": {
        "type": "Polygon",
        "coordinates": [
          [
            [
              139.1086059,
              35.9837888
            ],
            [
              139.1083873,
              35.9838057
            ],
            [
              139.1083718,
              35.9837969
            ],
            [
              139.1083553,
              35.9835877
            ],
            [
              139.108349,
              35.9835073
            ],
            [
              139.108553,
              35.9834741
            ],
            [
              139.1086059,
              35.9837888
            ]
          ]
        ]
      },
      "id": "way/699133068"
    },
    {
      "type": "Feature",
      "properties": {
        "@id": "way/699387853",
        "amenity": "parking"
      },
      "geometry": {
        "type": "Polygon",
        "coordinates": [
          [
            [
              139.1068274,
              35.9780849
            ],
            [
              139.1065188,
              35.9779799
            ],
            [
              139.1065837,
              35.9778511
            ],
            [
              139.1065947,
              35.9778416
            ],
            [
              139.1066076,
              35.9778347
            ],
            [
              139.1066149,
              35.9778337
            ],
            [
              139.1066211,
              35.9778367
            ],
            [
              139.1068684,
              35.9780468
            ],
            [
              139.1068274,
              35.9780849
            ]
          ]
        ]
      },
      "id": "way/699387853"
    },
    {
      "type": "Feature",
      "properties": {
        "@id": "way/711661445",
        "amenity": "parking"
      },
      "geometry": {
        "type": "Polygon",
        "coordinates": [
          [
            [
              139.1025254,
              35.9906883
            ],
            [
              139.1025742,
              35.9904958
            ],
            [
              139.1024733,
              35.9904818
            ],
            [
              139.1024999,
              35.9903706
            ],
            [
              139.1027269,
              35.9904277
            ],
            [
              139.1027446,
              35.9903814
            ],
            [
              139.1031353,
              35.9904642
            ],
            [
              139.1031427,
              35.9905556
            ],
            [
              139.1031454,
              35.9905987
            ],
            [
              139.1031824,
              35.9905826
            ],
            [
              139.1033419,
              35.9905273
            ],
            [
              139.1033297,
              35.9906236
            ],
            [
              139.1033685,
              35.9906437
            ],
            [
              139.103725,
              35.9907183
            ],
            [
              139.1038655,
              35.9907154
            ],
            [
              139.103995,
              35.9906751
            ],
            [
              139.1040597,
              35.990674
            ],
            [
              139.1043004,
              35.9906589
            ],
            [
              139.1044208,
              35.9906112
            ],
            [
              139.1045086,
              35.9905274
            ],
            [
              139.1045568,
              35.9905414
            ],
            [
              139.1046876,
              35.9905642
            ],
            [
              139.1045452,
              35.9907192
            ],
            [
              139.1043585,
              35.9908046
            ],
            [
              139.104128,
              35.990819
            ],
            [
              139.1037297,
              35.9908521
            ],
            [
              139.1033924,
              35.9908109
            ],
            [
              139.1033289,
              35.9907865
            ],
            [
              139.1033406,
              35.9907339
            ],
            [
              139.1032576,
              35.9907043
            ],
            [
              139.1027764,
              35.9907287
            ],
            [
              139.1026742,
              35.9907135
            ],
            [
              139.1025254,
              35.9906883
            ]
          ]
        ]
      },
      "id": "way/711661445"
    },
    {
      "type": "Feature",
      "properties": {
        "@id": "way/835694539",
        "amenity": "parking"
      },
      "geometry": {
        "type": "Polygon",
        "coordinates": [
          [
            [
              139.1081299,
              35.9813527
            ],
            [
              139.1080403,
              35.9814427
            ],
            [
              139.1080224,
              35.981424
            ],
            [
              139.107783,
              35.9811654
            ],
            [
              139.1078052,
              35.9811508
            ],
            [
              139.1079132,
              35.981091
            ],
            [
              139.1080189,
              35.9811893
            ],
            [
              139.1081613,
              35.9813261
            ],
            [
              139.1081299,
              35.9813527
            ]
          ]
        ]
      },
      "id": "way/835694539"
    },
    {
      "type": "Feature",
      "properties": {
        "@id": "way/835695244",
        "amenity": "parking"
      },
      "geometry": {
        "type": "Polygon",
        "coordinates": [
          [
            [
              139.1072454,
              35.981862
            ],
            [
              139.1071576,
              35.9818266
            ],
            [
              139.1071571,
              35.9817987
            ],
            [
              139.1071894,
              35.9817355
            ],
            [
              139.1072985,
              35.9817832
            ],
            [
              139.1072454,
              35.981862
            ]
          ]
        ]
      },
      "id": "way/835695244"
    },
    {
      "type": "Feature",
      "properties": {
        "@id": "way/835695245",
        "amenity": "parking"
      },
      "geometry": {
        "type": "Polygon",
        "coordinates": [
          [
            [
              139.1071104,
              35.9818166
            ],
            [
              139.1070988,
              35.9818231
            ],
            [
              139.1070506,
              35.9818174
            ],
            [
              139.1070392,
              35.9818086
            ],
            [
              139.1070511,
              35.9817348
            ],
            [
              139.1071197,
              35.9817709
            ],
            [
              139.1071104,
              35.9818166
            ]
          ]
        ]
      },
      "id": "way/835695245"
    },
    {
      "type": "Feature",
      "properties": {
        "@id": "way/840265442",
        "amenity": "parking",
        "capacity": "9",
        "capacity:disabled": "1"
      },
      "geometry": {
        "type": "Polygon",
        "coordinates": [
          [
            [
              139.1035492,
              35.9862655
            ],
            [
              139.1034568,
              35.9862903
            ],
            [
              139.1034431,
              35.986257
            ],
            [
              139.103221,
              35.9863169
            ],
            [
              139.1031922,
              35.9862469
            ],
            [
              139.1035052,
              35.9861621
            ],
            [
              139.1035492,
              35.9862655
            ]
          ]
        ]
      },
      "id": "way/840265442"
    },
    {
      "type": "Feature",
      "properties": {
        "@id": "way/840281609",
        "amenity": "parking"
      },
      "geometry": {
        "type": "Polygon",
        "coordinates": [
          [
            [
              139.0981324,
              35.9856059
            ],
            [
              139.0979218,
              35.985759
            ],
            [
              139.0978236,
              35.985709
            ],
            [
              139.0978023,
              35.9857295
            ],
            [
              139.0977894,
              35.9857231
            ],
            [
              139.0977755,
              35.9857163
            ],
            [
              139.0978221,
              35.9856555
            ],
            [
              139.0978349,
              35.9856594
            ],
            [
              139.097907,
              35.985567
            ],
            [
              139.0979646,
              35.9854932
            ],
            [
              139.0979489,
              35.9854846
            ],
            [
              139.0980187,
              35.9853837
            ],
            [
              139.0981342,
              35.9855839
            ],
            [
              139.0981324,
              35.9856059
            ]
          ]
        ]
      },
      "id": "way/840281609"
    },
    {
      "type": "Feature",
      "properties": {
        "@id": "way/840281613",
        "amenity": "parking",
        "capacity": "60",
        "operator": "横瀬町",
        "operator:type": "government"
      },
      "geometry": {
        "type": "Polygon",
        "coordinates": [
          [
            [
              139.0997819,
              35.9875849
            ],
            [
              139.0995321,
              35.9876374
            ],
            [
              139.0994984,
              35.9876229
            ],
            [
              139.0993092,
              35.9873618
            ],
            [
              139.0993269,
              35.9873291
            ],
            [
              139.0996035,
              35.9872098
            ],
            [
              139.0997895,
              35.9875135
            ],
            [
              139.0997819,
              35.9875849
            ]
          ]
        ]
      },
      "id": "way/840281613"
    },
    {
      "type": "Feature",
      "properties": {
        "@id": "way/840281614",
        "amenity": "parking",
        "capacity": "35",
        "capacity:disabled": "1",
        "operator": "横瀬町",
        "operator:type": "government"
      },
      "geometry": {
        "type": "Polygon",
        "coordinates": [
          [
            [
              139.1005708,
              35.987714
            ],
            [
              139.1004767,
              35.9877816
            ],
            [
              139.1003415,
              35.9876385
            ],
            [
              139.1002857,
              35.9875664
            ],
            [
              139.100105,
              35.9876608
            ],
            [
              139.1000603,
              35.9875918
            ],
            [
              139.1000181,
              35.9875268
            ],
            [
              139.1003257,
              35.9873729
            ],
            [
              139.1001721,
              35.9871654
            ],
            [
              139.1002226,
              35.9871444
            ],
            [
              139.1004377,
              35.9874287
            ],
            [
              139.1003781,
              35.9874582
            ],
            [
              139.1005708,
              35.987714
            ]
          ]
        ]
      },
      "id": "way/840281614"
    },
    {
      "type": "Feature",
      "properties": {
        "@id": "way/919427411",
        "amenity": "parking"
      },
      "geometry": {
        "type": "Polygon",
        "coordinates": [
          [
            [
              139.157171,
              35.9899846
            ],
            [
              139.1568101,
              35.9899387
            ],
            [
              139.1567602,
              35.9899323
            ],
            [
              139.1564298,
              35.9898957
            ],
            [
              139.1564077,
              35.9898903
            ],
            [
              139.1563929,
              35.9898741
            ],
            [
              139.1563882,
              35.9898547
            ],
            [
              139.1563956,
              35.9898354
            ],
            [
              139.1565626,
              35.9895798
            ],
            [
              139.1565872,
              35.9895428
            ],
            [
              139.1567629,
              35.9892781
            ],
            [
              139.1567912,
              35.9892354
            ],
            [
              139.1569667,
              35.9888727
            ],
            [
              139.1572499,
              35.9893767
            ],
            [
              139.1575411,
              35.9898792
            ],
            [
              139.1576144,
              35.9900291
            ],
            [
              139.1572159,
              35.9899903
            ],
            [
              139.157171,
              35.9899846
            ]
          ]
        ]
      },
      "id": "way/919427411"
    },
    {
      "type": "Feature",
      "properties": {
        "@id": "way/942865193",
        "amenity": "parking"
      },
      "geometry": {
        "type": "Polygon",
        "coordinates": [
          [
            [
              139.1074302,
              35.9948677
            ],
            [
              139.1075118,
              35.9951517
            ],
            [
              139.1072131,
              35.9952079
            ],
            [
              139.1071252,
              35.9949021
            ],
            [
              139.107161,
              35.9948954
            ],
            [
              139.1073643,
              35.9948571
            ],
            [
              139.1073706,
              35.9948789
            ],
            [
              139.1074302,
              35.9948677
            ]
          ]
        ]
      },
      "id": "way/942865193"
    },
    {
      "type": "Feature",
      "properties": {
        "@id": "way/1014234554",
        "amenity": "parking"
      },
      "geometry": {
        "type": "Polygon",
        "coordinates": [
          [
            [
              139.108007,
              35.9955365
            ],
            [
              139.1079354,
              35.9955475
            ],
            [
              139.1078926,
              35.9955231
            ],
            [
              139.1077449,
              35.9955489
            ],
            [
              139.1077117,
              35.9955197
            ],
            [
              139.1076264,
              35.9952474
            ],
            [
              139.1076102,
              35.9951956
            ],
            [
              139.10786,
              35.995162
            ],
            [
              139.1078218,
              35.9950552
            ],
            [
              139.1079649,
              35.995027
            ],
            [
              139.1080198,
              35.9950963
            ],
            [
              139.1080528,
              35.9953015
            ],
            [
              139.1080229,
              35.9953344
            ],
            [
              139.1079722,
              35.9953839
            ],
            [
              139.108007,
              35.9955365
            ]
          ]
        ]
      },
      "id": "way/1014234554"
    },
    {
      "type": "Feature",
      "properties": {
        "@id": "way/1039048715",
        "amenity": "parking"
      },
      "geometry": {
        "type": "Polygon",
        "coordinates": [
          [
            [
              139.1062746,
              35.9958343
            ],
            [
              139.1061428,
              35.9958591
            ],
            [
              139.1060491,
              35.9955325
            ],
            [
              139.106181,
              35.9955077
            ],
            [
              139.1062746,
              35.9958343
            ]
          ]
        ]
      },
      "id": "way/1039048715"
    },
    {
      "type": "Feature",
      "properties": {
        "@id": "way/1039508950",
        "amenity": "parking"
      },
      "geometry": {
        "type": "Polygon",
        "coordinates": [
          [
            [
              139.1052948,
              35.9900255
            ],
            [
              139.1053004,
              35.9902169
            ],
            [
              139.1052601,
              35.9904472
            ],
            [
              139.1051747,
              35.9905795
            ],
            [
              139.1050242,
              35.9906352
            ],
            [
              139.1048212,
              35.9907013
            ],
            [
              139.1047679,
              35.9906724
            ],
            [
              139.1048065,
              35.9906387
            ],
            [
              139.1048746,
              35.990552
            ],
            [
              139.1049008,
              35.9904328
            ],
            [
              139.1049435,
              35.9901845
            ],
            [
              139.1049853,
              35.9899693
            ],
            [
              139.1050506,
              35.9898935
            ],
            [
              139.1051353,
              35.9899006
            ],
            [
              139.1052655,
              35.9899475
            ],
            [
              139.1052948,
              35.9900255
            ]
          ]
        ]
      },
      "id": "way/1039508950"
    },
    {
      "type": "Feature",
      "properties": {
        "@id": "way/1040431939",
        "amenity": "parking"
      },
      "geometry": {
        "type": "Polygon",
        "coordinates": [
          [
            [
              139.1099398,
              35.9817094
            ],
            [
              139.1099207,
              35.9818044
            ],
            [
              139.1099205,
              35.9819073
            ],
            [
              139.1099815,
              35.9821599
            ],
            [
              139.1099924,
              35.9823213
            ],
            [
              139.110037,
              35.9825483
            ],
            [
              139.1098233,
              35.9825764
            ],
            [
              139.1097734,
              35.9823561
            ],
            [
              139.1099573,
              35.9823249
            ],
            [
              139.109897,
              35.9819765
            ],
            [
              139.1098491,
              35.9819241
            ],
            [
              139.1098108,
              35.981774
            ],
            [
              139.1094884,
              35.9818187
            ],
            [
              139.1094432,
              35.9816231
            ],
            [
              139.1097478,
              35.9814677
            ],
            [
              139.1098185,
              35.9815335
            ],
            [
              139.1099364,
              35.9816814
            ],
            [
              139.1099398,
              35.9817094
            ]
          ]
        ]
      },
      "id": "way/1040431939"
    },
    {
      "type": "Feature",
      "properties": {
        "@id": "way/1079354809",
        "access": "yes",
        "amenity": "parking",
        "capacity": "3",
        "capacity:disabled": "3"
      },
      "geometry": {
        "type": "Polygon",
        "coordinates": [
          [
            [
              139.1038766,
              35.9869556
            ],
            [
              139.1038831,
              35.9870284
            ],
            [
              139.1038324,
              35.9870316
            ],
            [
              139.1038264,
              35.9869601
            ],
            [
              139.1038766,
              35.9869556
            ]
          ]
        ]
      },
      "id": "way/1079354809"
    },
    {
      "type": "Feature",
      "properties": {
        "@id": "way/1079354810",
        "access": "yes",
        "amenity": "parking",
        "capacity": "1",
        "capacity:disabled": "1"
      },
      "geometry": {
        "type": "Polygon",
        "coordinates": [
          [
            [
              139.1038574,
              35.9870586
            ],
            [
              139.1038321,
              35.9870976
            ],
            [
              139.1038034,
              35.9870854
            ],
            [
              139.1038287,
              35.9870464
            ],
            [
              139.1038574,
              35.9870586
            ]
          ]
        ]
      },
      "id": "way/1079354810"
    },
    {
      "type": "Feature",
      "properties": {
        "@id": "way/1079354811",
        "amenity": "parking",
        "capacity": "6"
      },
      "geometry": {
        "type": "Polygon",
        "coordinates": [
          [
            [
              139.1037602,
              35.9873196
            ],
            [
              139.1036915,
              35.9873305
            ],
            [
              139.1036713,
              35.9872586
            ],
            [
              139.1036764,
              35.9872063
            ],
            [
              139.1037801,
              35.9872107
            ],
            [
              139.1037602,
              35.9873196
            ]
          ]
        ]
      },
      "id": "way/1079354811"
    },
    {
      "type": "Feature",
      "properties": {
        "@id": "way/1081041616",
        "amenity": "parking"
      },
      "geometry": {
        "type": "Polygon",
        "coordinates": [
          [
            [
              139.1015007,
              35.9874399
            ],
            [
              139.1014411,
              35.9874345
            ],
            [
              139.1014472,
              35.9873901
            ],
            [
              139.1015068,
              35.9873955
            ],
            [
              139.1015007,
              35.9874399
            ]
          ]
        ]
      },
      "id": "way/1081041616"
    },
    {
      "type": "Feature",
      "properties": {
        "@id": "way/1172785295",
        "amenity": "parking"
      },
      "geometry": {
        "type": "Polygon",
        "coordinates": [
          [
            [
              139.1073471,
              35.981199
            ],
            [
              139.1074886,
              35.9811268
            ],
            [
              139.1075523,
              35.9811833
            ],
            [
              139.1074464,
              35.981275
            ],
            [
              139.1073471,
              35.981199
            ]
          ]
        ]
      },
      "id": "way/1172785295"
    },
    {
      "type": "Feature",
      "properties": {
        "@id": "way/1245327769",
        "access": "yes",
        "amenity": "parking",
        "fee": "no",
        "parking": "surface"
      },
      "geometry": {
        "type": "Polygon",
        "coordinates": [
          [
            [
              139.1359865,
              35.9883131
            ],
            [
              139.1360408,
              35.9882828
            ],
            [
              139.1360999,
              35.9882398
            ],
            [
              139.1363715,
              35.9882701
            ],
            [
              139.1365151,
              35.9882574
            ],
            [
              139.1365378,
              35.9883295
            ],
            [
              139.1365513,
              35.9883727
            ],
            [
              139.1363987,
              35.9884034
            ],
            [
              139.136415,
              35.9884576
            ],
            [
              139.1361289,
              35.9884537
            ],
            [
              139.1361217,
              35.9883932
            ],
            [
              139.1359865,
              35.9883131
            ]
          ]
        ]
      },
      "id": "way/1245327769"
    },
    {
      "type": "Feature",
      "properties": {
        "@id": "way/1267599875",
        "access": "yes",
        "amenity": "parking",
        "fee": "no",
        "parking": "surface",
        "surface": "gravel"
      },
      "geometry": {
        "type": "Polygon",
        "coordinates": [
          [
            [
              139.1155264,
              35.9417826
            ],
            [
              139.1155527,
              35.941701
            ],
            [
              139.1155855,
              35.9415991
            ],
            [
              139.1158092,
              35.9416754
            ],
            [
              139.1160348,
              35.9416839
            ],
            [
              139.1160034,
              35.9417824
            ],
            [
              139.1158977,
              35.9419344
            ],
            [
              139.1156959,
              35.9418905
            ],
            [
              139.1155264,
              35.9417826
            ]
          ]
        ]
      },
      "id": "way/1267599875"
    },
    {
      "type": "Feature",
      "properties": {
        "@id": "way/1273318683",
        "amenity": "parking"
      },
      "geometry": {
        "type": "Polygon",
        "coordinates": [
          [
            [
              139.1041958,
              35.9861723
            ],
            [
              139.1041389,
              35.9860391
            ],
            [
              139.1041782,
              35.9859914
            ],
            [
              139.1042967,
              35.9859656
            ],
            [
              139.1043608,
              35.9859517
            ],
            [
              139.1044197,
              35.9860607
            ],
            [
              139.1043933,
              35.9860978
            ],
            [
              139.1042272,
              35.9861787
            ],
            [
              139.1041958,
              35.9861723
            ]
          ]
        ]
      },
      "id": "way/1273318683"
    },
    {
      "type": "Feature",
      "properties": {
        "@id": "way/1510751540",
        "amenity": "parking"
      },
      "geometry": {
        "type": "Polygon",
        "coordinates": [
          [
            [
              139.1059446,
              35.9989944
            ],
            [
              139.1058695,
              35.999027
            ],
            [
              139.1057408,
              35.9988556
            ],
            [
              139.1058373,
              35.9988176
            ],
            [
              139.1059446,
              35.9989944
            ]
          ]
        ]
      },
      "id": "way/1510751540"
    },
    {
      "type": "Feature",
      "properties": {
        "@id": "way/1510754129",
        "amenity": "parking"
      },
      "geometry": {
        "type": "Polygon",
        "coordinates": [
          [
            [
              139.1145859,
              35.9837134
            ],
            [
              139.1144625,
              35.9836841
            ],
            [
              139.1144827,
              35.9835647
            ],
            [
              139.1146463,
              35.9836157
            ],
            [
              139.1146396,
              35.983657
            ],
            [
              139.1145859,
              35.9836646
            ],
            [
              139.1145859,
              35.9837134
            ]
          ]
        ]
      },
      "id": "way/1510754129"
    },
    {
      "type": "Feature",
      "properties": {
        "@id": "way/1510761784",
        "amenity": "parking"
      },
      "geometry": {
        "type": "Polygon",
        "coordinates": [
          [
            [
              139.1029237,
              35.9840172
            ],
            [
              139.1027534,
              35.9840541
            ],
            [
              139.1027159,
              35.9839868
            ],
            [
              139.1028902,
              35.983913
            ],
            [
              139.1029237,
              35.9840172
            ]
          ]
        ]
      },
      "id": "way/1510761784"
    },
    {
      "type": "Feature",
      "properties": {
        "@id": "way/1510764710",
        "amenity": "parking"
      },
      "geometry": {
        "type": "Polygon",
        "coordinates": [
          [
            [
              139.1088126,
              35.9728351
            ],
            [
              139.1086979,
              35.9727178
            ],
            [
              139.1087167,
              35.9727027
            ],
            [
              139.1086604,
              35.9726533
            ],
            [
              139.1088267,
              35.972625
            ],
            [
              139.1089125,
              35.9726815
            ],
            [
              139.1089306,
              35.9727553
            ],
            [
              139.1088126,
              35.9728351
            ]
          ]
        ]
      },
      "id": "way/1510764710"
    },
    {
      "type": "Feature",
      "properties": {
        "@id": "way/1510773210",
        "amenity": "parking"
      },
      "geometry": {
        "type": "Polygon",
        "coordinates": [
          [
            [
              139.1335177,
              35.977418
            ],
            [
              139.1335391,
              35.9771532
            ],
            [
              139.1336947,
              35.9769687
            ],
            [
              139.1343572,
              35.9769621
            ],
            [
              139.1345074,
              35.9770359
            ],
            [
              139.1342982,
              35.9772422
            ],
            [
              139.1339576,
              35.9773811
            ],
            [
              139.1335177,
              35.977418
            ]
          ]
        ]
      },
      "id": "way/1510773210"
    },
    {
      "type": "Feature",
      "properties": {
        "@id": "way/1510773211",
        "amenity": "parking"
      },
      "geometry": {
        "type": "Polygon",
        "coordinates": [
          [
            [
              139.1338181,
              35.9776849
            ],
            [
              139.1337966,
              35.9775808
            ],
            [
              139.1340541,
              35.9775656
            ],
            [
              139.1340246,
              35.9773941
            ],
            [
              139.1342231,
              35.9772964
            ],
            [
              139.1343089,
              35.9772573
            ],
            [
              139.134266,
              35.9773963
            ],
            [
              139.1342312,
              35.9775916
            ],
            [
              139.1338181,
              35.9776849
            ]
          ]
        ]
      },
      "id": "way/1510773211"
    },
    {
      "type": "Feature",
      "properties": {
        "@id": "way/1510773212",
        "amenity": "parking"
      },
      "geometry": {
        "type": "Polygon",
        "coordinates": [
          [
            [
              139.1345959,
              35.9775949
            ],
            [
              139.134604,
              35.977546
            ],
            [
              139.1350184,
              35.9775862
            ],
            [
              139.135017,
              35.9776307
            ],
            [
              139.1345959,
              35.9775949
            ]
          ]
        ]
      },
      "id": "way/1510773212"
    }
  ]
}