{
"type": "FeatureCollection",
"name": "parsed",
"crs": { "type": "name", "properties": { "name": "urn:ogc:def:crs:OGC:1.3:CRS84" } },
"xy_coordinate_resolution": 1e-07,
"features": [
{"type":"Feature","properties":{"felt:feature":1,"W12_001":null,"W12_002":null,"W12_003":null},"geometry":{"type":"MultiPolygon","coordinates":[[[[139.1130556,36.0257222],[139.1137222,36.0238889],[139.1155278,36.0220833],[139.1173056,36.022],[139.1176667,36.0213611],[139.1186389,36.0210278],[139.1191111,36.0204167],[139.1198056,36.0205833],[139.1210833,36.0203056],[139.1218056,36.0198056],[139.12325,36.0184167],[139.1244722,36.0181944],[139.1253889,36.0163333],[139.1273056,36.0154722],[139.1287778,36.0146111],[139.1308333,36.0144722],[139.1320833,36.0149444],[139.1334722,36.0145556],[139.1344444,36.0143056],[139.13525,36.0132222],[139.13625,36.0131111],[139.13875,36.0116944],[139.1404722,36.01125],[139.1441111,36.0077778],[139.1446389,36.0062778],[139.1451944,36.0043889],[139.1445,36.0031667],[139.1443333,36.0031667],[139.1449167,36.0015],[139.1458889,36.0006667],[139.1453889,35.9991389],[139.1455833,35.9980833],[139.1484444,35.997],[139.1498889,35.9970833],[139.1518889,35.9963611],[139.1534722,35.9963333],[139.1545833,35.9956111],[139.1551389,35.9945],[139.1546667,35.9929167],[139.1562778,35.9921111],[139.1591667,35.9896667],[139.1596944,35.9885],[139.1615556,35.9884722],[139.1632222,35.9870833],[139.1655833,35.9859167],[139.1694167,35.9856667],[139.1733889,35.9803889],[139.1725833,35.9778333],[139.1742222,35.9771944],[139.1766667,35.9746389],[139.1785556,35.9696389],[139.1773333,35.9682222],[139.1774444,35.9676389],[139.1767778,35.9660833],[139.1758056,35.9631667],[139.1750278,35.9609722],[139.1744167,35.9595833],[139.1725,35.9596111],[139.1704444,35.9566111],[139.1700833,35.9556111],[139.1687222,35.95425],[139.1679722,35.9496389],[139.1636111,35.9488611],[139.1605,35.9416667],[139.1608333,35.9396667],[139.1593056,35.9376667],[139.1591944,35.9346667],[139.1604444,35.9315556],[139.1605,35.9299444],[139.1610833,35.9280556],[139.1603333,35.9265],[139.159,35.9265833],[139.1555278,35.9295556],[139.1541944,35.9293889],[139.1522222,35.9305556],[139.1499167,35.9298333],[139.1446111,35.9304167],[139.1434167,35.9313333],[139.1397778,35.9316944],[139.13675,35.9316944],[139.1335278,35.9328333],[139.13225,35.9338889],[139.1313889,35.9359444],[139.1304444,35.9369444],[139.1294444,35.9364722],[139.1278333,35.9365556],[139.1266111,35.9363611],[139.1257222,35.9351667],[139.1234167,35.9346944],[139.1218056,35.9336389],[139.1218056,35.9336111],[139.1203333,35.9329444],[139.1193056,35.9320556],[139.1182222,35.932],[139.1168056,35.93075],[139.1154167,35.9308056],[139.1145833,35.9304444],[139.1129444,35.9304444],[139.1123333,35.9301389],[139.1092778,35.9293056],[139.1073889,35.9291111],[139.1060278,35.9281944],[139.1043333,35.9279444],[139.1027222,35.92725],[139.1006389,35.9283333],[139.0996944,35.92925],[139.0991389,35.93075],[139.0981667,35.9342778],[139.0960278,35.9350556],[139.0955556,35.9358056],[139.0968889,35.9388333],[139.0977778,35.9414444],[139.0962222,35.9441944],[139.0978889,35.9476389],[139.0979722,35.9524444],[139.0973611,35.9525278],[139.0941389,35.9545833],[139.09475,35.9553889],[139.0940278,35.9564722],[139.0936944,35.95825],[139.0946389,35.9594444],[139.0946667,35.9603333],[139.0929444,35.9615],[139.0928056,35.9629167],[139.092,35.9640278],[139.0881389,35.9662778],[139.0867778,35.97125],[139.0876944,35.9718056],[139.0869167,35.97475],[139.0861944,35.9751389],[139.0858611,35.9766667],[139.0849167,35.9763333],[139.0846389,35.97675],[139.0849444,35.9783889],[139.0868333,35.9794722],[139.0876111,35.9845833],[139.0884444,35.9870833],[139.0898611,35.9898889],[139.0908611,35.9908056],[139.0916389,35.9931389],[139.0933056,35.9938611],[139.0931944,35.9953333],[139.094,35.99625],[139.0954722,35.9986667],[139.09575,36.0006944],[139.0953611,36.0024167],[139.0953056,36.0031667],[139.0953889,36.0031667],[139.0955,36.0035833],[139.09625,36.0049167],[139.0953889,36.0079722],[139.0954722,36.0086389],[139.0969167,36.0109444],[139.0971111,36.0118889],[139.0970556,36.0126667],[139.0962222,36.0131944],[139.0957222,36.0139167],[139.096,36.0147778],[139.0966667,36.0157778],[139.0976944,36.0163611],[139.0997222,36.0184167],[139.0999722,36.0199444],[139.1006667,36.0205556],[139.1021111,36.02175],[139.1029722,36.0231111],[139.1053333,36.0240833],[139.1069444,36.0251667],[139.1074444,36.0261667],[139.1078056,36.0266111],[139.1083056,36.0267222],[139.1104167,36.0268333],[139.1111389,36.0269167],[139.1122222,36.0268333],[139.1130556,36.0257222]]]]}}
]
}
