{
"type": "FeatureCollection",
"name": "YokozeTownBoundary_OSM_3kmBuffer",
"crs": { "type": "name", "properties": { "name": "urn:ogc:def:crs:OGC:1.3:CRS84" } },
"features": [
{ "type": "Feature", "properties": { "fid": 1, "id": "relation/1768252", "@id": "relation/1768252", "admin_level": "7", "boundary": "administrative", "name": "横瀬町", "name:en": "Yokoze", "name:ja": "横瀬町", "name:ja-Hira": "よこぜまち", "name:ja-Latn": "Yokoze-machi", "name:th": "โยโกเซะ", "name:zh": "橫瀨町", "name:zh-Hans": "横濑町", "name:zh-Hant": "橫瀨町", "ref": "113611", "type": "boundary", "wikidata": "Q1345277", "@relations": null }, "geometry": { "type": "MultiPolygon", "coordinates": [ [ [ [ 139.060160680829625, 35.974319927758145 ], [ 139.060083541476416, 35.974848 ], [ 139.060083541476416, 35.974998 ], [ 139.060147778090368, 35.976502920366258 ], [ 139.060167778090374, 35.976736915904787 ], [ 139.060350652080984, 35.978178617352008 ], [ 139.06039665208101, 35.978451607160316 ], [ 139.061509408590581, 35.982345108712323 ], [ 139.061525539351351, 35.982384625678037 ], [ 139.06154809755165, 35.982463518835623 ], [ 139.061661097551621, 35.982808494410392 ], [ 139.061977771453797, 35.983525736474235 ], [ 139.062065661132351, 35.984031205003156 ], [ 139.062092661132368, 35.984139199085242 ], [ 139.062103197061248, 35.984181128755473 ], [ 139.06212819706127, 35.984280123278126 ], [ 139.062699255246116, 35.986036135537567 ], [ 139.062685310813947, 35.986039250520534 ], [ 139.06290331081388, 35.986678203527966 ], [ 139.063183376875287, 35.987396726795808 ], [ 139.063179735219364, 35.987434600825907 ], [ 139.064312725144617, 35.9955971920729 ], [ 139.065955892876872, 35.998084770274687 ], [ 139.066626636298594, 36.000114325312069 ], [ 139.066679636298602, 36.000217314368754 ], [ 139.067315324018494, 36.001359011103688 ], [ 139.067318324018544, 36.001364010500069 ], [ 139.067688452984612, 36.001870064980494 ], [ 139.068379842304608, 36.003617116737388 ], [ 139.068666972610117, 36.003928497886179 ], [ 139.069536712580827, 36.005808243495188 ], [ 139.069662712580822, 36.005989218939675 ], [ 139.070128168204974, 36.006617255843224 ], [ 139.070123986975602, 36.006619281619884 ], [ 139.070294986975568, 36.006850248807069 ], [ 139.070341046024453, 36.006904489133824 ], [ 139.070414939033753, 36.007004191771614 ], [ 139.070431803334259, 36.007025606266247 ], [ 139.070769434927684, 36.007888513066952 ], [ 139.070814434927655, 36.007956504193338 ], [ 139.071686101897399, 36.008958206001715 ], [ 139.072754047495749, 36.010637804462135 ], [ 139.072816047495735, 36.010716792754515 ], [ 139.074750494319801, 36.012876828155655 ], [ 139.074937494319812, 36.013060795845952 ], [ 139.075558686141562, 36.013605793030678 ], [ 139.075577129131261, 36.013724334119253 ], [ 139.080748361271333, 36.021091882339419 ], [ 139.080764361271321, 36.021106879629542 ], [ 139.086889771460108, 36.025353269376637 ], [ 139.092122464383607, 36.027183229101652 ], [ 139.093947207220623, 36.028251265664608 ], [ 139.101436077628705, 36.03033602758601 ], [ 139.109350920505449, 36.03057017797893 ], [ 139.109461920505453, 36.030560180727541 ], [ 139.114436424614809, 36.029722360892393 ], [ 139.114596424614803, 36.029682371461575 ], [ 139.116775757223763, 36.028995158812108 ], [ 139.118755819038569, 36.028619937161331 ], [ 139.118988819038577, 36.028544956433308 ], [ 139.125795137761145, 36.025355276746843 ], [ 139.12684013776115, 36.024683422221642 ], [ 139.128793635635731, 36.022795672471567 ], [ 139.129162466700961, 36.022575325612685 ], [ 139.129234466701007, 36.022521336563379 ], [ 139.129260445311388, 36.022493533209541 ], [ 139.130992731578232, 36.022257693555751 ], [ 139.131024770153147, 36.022415201915827 ], [ 139.131213432999687, 36.022390098965396 ], [ 139.131534912424712, 36.022349116139921 ], [ 139.131961810453191, 36.022295653244399 ], [ 139.134787949964561, 36.021815077503284 ], [ 139.135176949964574, 36.021731099944169 ], [ 139.138563029692619, 36.020756477161981 ], [ 139.138920523694793, 36.020702776220119 ], [ 139.138931909673431, 36.02075320921216 ], [ 139.139283909673452, 36.020701223356177 ], [ 139.139943193019832, 36.020550996734542 ], [ 139.140645461051548, 36.020524479667614 ], [ 139.140787461051531, 36.020508484049245 ], [ 139.14289858092198, 36.020160626788503 ], [ 139.145920560812357, 36.020241576311889 ], [ 139.146051560812339, 36.020231579064586 ], [ 139.150268370181294, 36.019477646169662 ], [ 139.150294347263866, 36.019564069465638 ], [ 139.150777347263869, 36.019469094988835 ], [ 139.151516248468397, 36.019314807661743 ], [ 139.152226248468423, 36.019157849534757 ], [ 139.154072102154743, 36.018668129471116 ], [ 139.15411860170866, 36.01866813697761 ], [ 139.154639601708652, 36.018596156600204 ], [ 139.160053221357146, 36.01728049826918 ], [ 139.161107254760651, 36.017380313091905 ], [ 139.161338254760636, 36.01739630868444 ], [ 139.167004988319235, 36.017304856876883 ], [ 139.167161988319265, 36.01728886126579 ], [ 139.173577156979064, 36.015972740626623 ], [ 139.179402296870535, 36.013431590523751 ], [ 139.179529296870498, 36.013358606976375 ], [ 139.181264532581878, 36.012272802350111 ], [ 139.181411532581905, 36.01217282351071 ], [ 139.181695194791445, 36.011966695770823 ], [ 139.185112013824806, 36.010468850890213 ], [ 139.185175013824789, 36.010431859167916 ], [ 139.187832978554752, 36.008391541238908 ], [ 139.187971778873532, 36.008510648932621 ], [ 139.188266778873526, 36.008285694192743 ], [ 139.189555862680919, 36.007094306775819 ], [ 139.189573370948665, 36.00708015511141 ], [ 139.189584742305215, 36.007067615658777 ], [ 139.189717584328321, 36.006944840330668 ], [ 139.190294754964668, 36.006501775100332 ], [ 139.190412460863058, 36.006384089686847 ], [ 139.192924460252357, 36.005037137161764 ], [ 139.198266501784076, 35.999482973057461 ], [ 139.20114317417142, 35.992840943313382 ], [ 139.201254747523762, 35.98580292193548 ], [ 139.200598620685128, 35.984153344662623 ], [ 139.200654916453232, 35.984056706618169 ], [ 139.201228605291902, 35.983000298003802 ], [ 139.201285605291901, 35.982887309804426 ], [ 139.201767164734207, 35.981660866336249 ], [ 139.202422770812575, 35.980734015065238 ], [ 139.202638770812598, 35.980297059909766 ], [ 139.20235514965907, 35.980205250588774 ], [ 139.203225875907719, 35.979158592856599 ], [ 139.203352875907711, 35.97891461902713 ], [ 139.204769732652437, 35.97537522593327 ], [ 139.204867732652446, 35.975033247279441 ], [ 139.20522284415145, 35.973567705168797 ], [ 139.205251844151434, 35.973421711570886 ], [ 139.205590336663448, 35.969628022948456 ], [ 139.205584336663435, 35.969309021607074 ], [ 139.20504166517668, 35.965273521278078 ], [ 139.205016665176686, 35.96517451580165 ], [ 139.204728142224411, 35.964368362269319 ], [ 139.204728553576103, 35.964361300819455 ], [ 139.204378546718658, 35.959684235200022 ], [ 139.204365546718662, 35.959622232334581 ], [ 139.202260336854152, 35.954701202509511 ], [ 139.202466814566861, 35.954631379153263 ], [ 139.202258814566875, 35.954228336245798 ], [ 139.202004526822464, 35.953751629930018 ], [ 139.201869526822463, 35.95350660236636 ], [ 139.201484673627789, 35.95288797492956 ], [ 139.201464288001091, 35.952840319949026 ], [ 139.201427288001099, 35.952785312684384 ], [ 139.201395395500924, 35.952744465232975 ], [ 139.200730555676955, 35.951675763448911 ], [ 139.200491555676962, 35.951332716909874 ], [ 139.199705269933418, 35.950275196745416 ], [ 139.199545269933424, 35.950073166633452 ], [ 139.199304344624437, 35.949774358840706 ], [ 139.199194344624431, 35.94964033835867 ], [ 139.198485247641855, 35.948818040457013 ], [ 139.198418247641854, 35.948744028375764 ], [ 139.196531347681514, 35.946884200155566 ], [ 139.196396347681485, 35.946765177926089 ], [ 139.194929410941654, 35.945638282670608 ], [ 139.194373092298122, 35.945107309544689 ], [ 139.192123662741238, 35.93982232781228 ], [ 139.192067662741209, 35.939733316658369 ], [ 139.188042123133215, 35.935001375060885 ], [ 139.182630558638209, 35.931284098737549 ], [ 139.182290558638186, 35.931107057632715 ], [ 139.181824108186845, 35.930869816902117 ], [ 139.1808890668365, 35.929910112741574 ], [ 139.174025330479793, 35.926154524287583 ], [ 139.172696480150336, 35.925838519531119 ], [ 139.172437965904379, 35.925745696105146 ], [ 139.172422778369111, 35.925773432236319 ], [ 139.172404019321846, 35.925768971263615 ], [ 139.170382395396757, 35.925052199428563 ], [ 139.170262395396776, 35.925017190337918 ], [ 139.166353074210036, 35.924139488395063 ], [ 139.16600307421001, 35.924083473228336 ], [ 139.165984002350996, 35.924161618976761 ], [ 139.162441575504829, 35.923144294975167 ], [ 139.162230188174163, 35.923069267601434 ], [ 139.162015703595273, 35.923021991013592 ], [ 139.158364203983439, 35.921973327872294 ], [ 139.158250150761432, 35.921961408601696 ], [ 139.157004138420518, 35.921124149963113 ], [ 139.156871138420541, 35.921054133762659 ], [ 139.152698194238837, 35.919494796397927 ], [ 139.152254309482174, 35.91924048806321 ], [ 139.152085309482175, 35.919167470284954 ], [ 139.148412682785732, 35.917855094794689 ], [ 139.147876682785778, 35.91770105473416 ], [ 139.14763677997928, 35.917633139139213 ], [ 139.147349779979265, 35.917553118259903 ], [ 139.146558790857796, 35.917343581826216 ], [ 139.146323790857821, 35.91728456627142 ], [ 139.145237148809116, 35.917031785471778 ], [ 139.144929148809126, 35.916965767860553 ], [ 139.142899387853305, 35.916597944320451 ], [ 139.142502387853312, 35.916538928302671 ], [ 139.141165201332569, 35.916409656854682 ], [ 139.140459675861166, 35.916166782395706 ], [ 139.140106675861148, 35.916100764645563 ], [ 139.137958786477157, 35.915785560873594 ], [ 139.137078312812235, 35.915384469571897 ], [ 139.136850312812214, 35.915296447646959 ], [ 139.135792017743597, 35.91491372956267 ], [ 139.135560574706147, 35.914768190577149 ], [ 139.135484574706169, 35.914721180268373 ], [ 139.133891919997097, 35.913912993950994 ], [ 139.133037275948709, 35.913325485104515 ], [ 139.132882275948702, 35.913234464772209 ], [ 139.131331926891761, 35.912388894131652 ], [ 139.131238926891768, 35.912341883127922 ], [ 139.124252706823285, 35.909843431431476 ], [ 139.124164706823279, 35.909823426117313 ], [ 139.123093054889011, 35.909598927422437 ], [ 139.123020054888997, 35.909584923662784 ], [ 139.120683866322025, 35.909224114335188 ], [ 139.120615866322026, 35.909216112150332 ], [ 139.120053443564984, 35.909181200404319 ], [ 139.119814327978872, 35.909147232040162 ], [ 139.119369605392052, 35.90902176752666 ], [ 139.119039736681742, 35.908925923614525 ], [ 139.118098410835216, 35.908668182221163 ], [ 139.117612410835221, 35.908543149343977 ], [ 139.11704005228944, 35.908422430340572 ], [ 139.116531141188034, 35.908228186028204 ], [ 139.116463141188007, 35.908203179746359 ], [ 139.114953364903783, 35.907692161991008 ], [ 139.114882364903821, 35.907670156320883 ], [ 139.112332934150373, 35.907048485381424 ], [ 139.109854195993563, 35.906169649210526 ], [ 139.102061805046333, 35.905406601564415 ], [ 139.094328471414258, 35.90649462444506 ], [ 139.094223471414296, 35.906522631784021 ], [ 139.094072767721485, 35.90656322903078 ], [ 139.093833767721492, 35.906628246034316 ], [ 139.09319793398646, 35.906808409758739 ], [ 139.092990933986471, 35.906869425577028 ], [ 139.091644894664995, 35.907299672540994 ], [ 139.091386894664993, 35.90738869513612 ], [ 139.088117685640839, 35.90873652798301 ], [ 139.087673685640823, 35.908951578903817 ], [ 139.084053012318918, 35.911052566244848 ], [ 139.08391708416346, 35.911146127967612 ], [ 139.083889705742735, 35.911164111661769 ], [ 139.083065205329063, 35.911812763175341 ], [ 139.083032926533178, 35.911782735457336 ], [ 139.082632926533194, 35.912064794151568 ], [ 139.080596271849032, 35.91366094179542 ], [ 139.080063271849042, 35.914125029007913 ], [ 139.078177855270212, 35.915958099159226 ], [ 139.07793885527019, 35.91621814200294 ], [ 139.076990178773883, 35.917319525897554 ], [ 139.07680717877389, 35.917546560142469 ], [ 139.07565930140737, 35.919109183032624 ], [ 139.075553301407354, 35.919268203877671 ], [ 139.074592421722059, 35.920861301089275 ], [ 139.074515421722026, 35.921003316845145 ], [ 139.073716855409344, 35.922830008964802 ], [ 139.072374678218637, 35.924388803417934 ], [ 139.072312678218651, 35.92447581541964 ], [ 139.070875682040224, 35.926802802207497 ], [ 139.070828682040258, 35.926891811865787 ], [ 139.070377485872513, 35.927802392799379 ], [ 139.070256485872505, 35.92806341811729 ], [ 139.068907900962103, 35.932126831505933 ], [ 139.068895900962076, 35.932184834151066 ], [ 139.06852554147639, 35.93579 ], [ 139.06852554147639, 35.935927 ], [ 139.069446917029751, 35.941000081985436 ], [ 139.069430401629489, 35.941065942335662 ], [ 139.069425401629559, 35.94109694344386 ], [ 139.069368157899504, 35.941477936902871 ], [ 139.069357157899447, 35.941556939346142 ], [ 139.069202444949667, 35.943275493297982 ], [ 139.069199444949703, 35.94334849396818 ], [ 139.069379396875377, 35.94612086850082 ], [ 139.06828863328775, 35.94791067009691 ], [ 139.066049264793378, 35.953411484608949 ], [ 139.066028093410409, 35.95343933041265 ], [ 139.064545926071162, 35.955669086321265 ], [ 139.064407926071169, 35.955909114292744 ], [ 139.064265717587233, 35.956160617330042 ], [ 139.064141717587262, 35.956383642610213 ], [ 139.064075835064699, 35.956503093770337 ], [ 139.063901835064655, 35.956821129339367 ], [ 139.063173248495417, 35.95829555972373 ], [ 139.063057248495426, 35.958557584137829 ], [ 139.06260004565533, 35.959814327122345 ], [ 139.062580022949675, 35.959863576394383 ], [ 139.062573953358395, 35.959886048101403 ], [ 139.062377183659777, 35.960426915037985 ], [ 139.062246473199735, 35.960607797581183 ], [ 139.062226473199757, 35.960647801726211 ], [ 139.061153030328484, 35.96325701245447 ], [ 139.061137030328439, 35.963306015913048 ], [ 139.06042088349443, 35.96637385431098 ], [ 139.060409883494458, 35.96645085675415 ], [ 139.060255957736558, 35.968027755758463 ], [ 139.060253957736535, 35.96806575620522 ], [ 139.060256051457401, 35.968089643919512 ], [ 139.060067216558366, 35.969619630527511 ], [ 139.06005821655836, 35.969906632539185 ], [ 139.060235728928433, 35.969910278680786 ], [ 139.059872704233754, 35.972515378471343 ], [ 139.05987770423377, 35.972574377355976 ], [ 139.060160680829625, 35.974319927758145 ] ] ] ] } }
]
}
